HST                     
1 20580U 90037B   26167.16527473  .00005381  00000+0  16841-3 0  9990
2 20580  28.4719  87.5586 0001852 131.7056 228.3698 15.30736864788415
POLAR                   
1 23802U 96013A   26167.26675754  .00000137  00000+0  00000+0 0  9997
2 23802  79.8528 227.0631 6469542 209.1106  89.7802  1.29846135144846
SWAS                    
1 25560U 98071A   26167.55187286  .00002485  00000+0  16059-3 0  9999
2 25560  69.8950 229.1578 0008659 260.9003  99.1182 15.09623395497170
CXO                     
1 25867U 99040B   26169.37713324  .00000529  00000+0  00000+0 0  9998
2 25867  56.2189 116.5542 7835469 310.3049   0.1821  0.37804062 17322
XMM-NEWTON              
1 25989U 99066A   26169.34668136 -.00000002  00000+0  00000+0 0  9995
2 25989  64.4794 282.9700 4673195  64.9038   0.0897  0.50127427 23010
TERRA                   
1 25994U 99068A   26167.61753826  .00000322  00000+0  74432-4 0  9991
2 25994  97.9457 217.1863 0001535 191.4491 287.0272 14.61102711409525
CLUSTER II-FM7 (SAMBA)  
1 26410U 00041A   26168.13893488  .00013373  00000+0  00000+0 0  9990
2 26410 149.9159  50.9864 9054007 268.1291 359.6411  0.44868040 20307
CLUSTER II-FM8 (TANGO)  
1 26464U 00045B   26166.18666907  .00011728  00000+0  00000+0 0  9992
2 26464 150.1506  51.7499 9056763 268.7196   2.8072  0.44399533 20306
ODIN                    
1 26702U 01007A   26167.58639384  .00154422  00000+0  99809-3 0  9998
2 26702  97.3827 208.4901 0006699 143.1745 216.9981 15.75610643389301
TIMED                   
1 26998U 01055B   26167.60674438  .00000867  00000+0  82250-4 0  9996
2 26998  74.0674 236.1872 0001092 336.2136  23.8998 14.95293752330731
CORIOLIS                
1 27640U 03001A   26167.56299563  .00000074  00000+0  55477-4 0  9992
2 27640  98.7125 174.4573 0013333 210.6860 149.3537 14.19944621214134
SORCE                   
1 27651U 03004A   26167.54183045  .00002152  00000+0  16480-3 0  9991
2 27651  39.9908 265.3605 0016541  44.2132 315.9981 15.03710366271807
MOST                    
1 27843U 03031D   26167.57771452  .00000045  00000+0  40640-4 0  9997
2 27843  98.7044 175.3122 0008723 252.4464 107.5761 14.21322405190625
SCISAT 1                
1 27858U 03036A   26167.55033932  .00000387  00000+0  54166-4 0  9997
2 27858  73.9284 172.6081 0008558 242.3745 117.6563 14.81446999231351
SWIFT                   
1 28485U 04047A   26166.40597521  .00042527  00000+0  35480-3 0  9998
2 28485  20.5516 198.6409 0001619 255.9834 104.0432 15.68175033186589
HINODE (SOLAR-B)        
1 29479U 06041A   26167.57218497  .00000548  00000+0  10255-3 0  9999
2 29479  98.0548 183.7339 0016034 291.9301  68.0199 14.68622317 54787
SHIJIAN-6 02A (SJ-6 02A)
1 29505U 06046A   26167.56387588  .00005984  00000+0  30678-3 0  9991
2 29505  97.6359 208.6256 0004452 125.3199 234.8451 15.16939747 72172
SHIJIAN-6 02B (SJ-6 02B)
1 29506U 06046B   26167.61321744  .00001432  00000+0  11557-3 0  9999
2 29506  97.7155 196.6754 0015349  62.0454 298.2322 15.01377348 70654
FGRST (GLAST)           
1 33053U 08029A   26167.44284414  .00002377  00000+0  81990-4 0  9995
2 33053  25.5804 209.6519 0007700 320.2006  39.7967 15.23944309995722
SDO                     
1 36395U 10005A   26167.43606649 -.00000097  00000+0  00000+0 0  9997
2 36395  34.6505  86.3529 0001722  45.0039 188.2479  1.00269931 60058
CRYOSAT 2               
1 36508U 10013A   26167.59906684  .00000190  00000+0  46453-4 0  9991
2 36508  92.0355 277.1585 0002157  89.3712 270.7743 14.51898959857995
X-SAT                   
1 37389U 11015C   26167.59367775 -.00000062  00000+0 -88669-5 0  9990
2 37389  98.3503 144.6455 0013973 350.2753   9.8155 14.25205610787597
GCOM-W1 (SHIZUKU)       
1 38337U 12025A   26167.42444183  .00000388  00000+0  96078-4 0  9998
2 38337  98.2021 107.9916 0001794  75.5642  36.3323 14.57124069748920
NUSTAR                  
1 38358U 12031A   26167.66667824  .00006985  00000+0  37799-3 0  9996
2 38358   6.0274  38.0421 0006765 100.3359  33.1333 15.08798834  1304
NEOSSAT                 
1 39089U 13009D   26167.44296319  .00000116  00000+0  55035-4 0  9991
2 39089  98.4176 347.4933 0009880 246.2723 113.7427 14.35826194696638
BRITE-AUSTRIA           
1 39091U 13009F   26167.44196029  .00000141  00000+0  62460-4 0  9999
2 39091  98.3994 346.8961 0009125 239.0066 121.0225 14.36541877696949
IRIS                    
1 39197U 13033A   26167.55881254  .00000808  00000+0  98707-4 0  9999
2 39197  97.9328   6.8378 0023599 323.9751  35.9873 14.85884177700284
HISAKI (SPRINT-A)       
1 39253U 13049A   26167.46595112  .00000124  00000+0  81915-4 0  9998
2 39253  29.7185 223.6803 0136863  11.0035 349.3487 13.55544709631323
CASSIOPE                
1 39265U 13055A   26167.50598788  .00042712 -53981-6  46668-3 0  9993
2 39265  80.9150  67.5495 0292901  64.7204 298.4069 15.25130525667569
STSAT-3                 
1 39422U 13066G   26167.64668013  .00001742  00000+0  13472-3 0  9995
2 39422  97.6221 137.5437 0011167  46.5923 313.6230 15.02752258684120
